HULIANWANG DIGUI-17     
1 62977U 25030G   26062.78363055 -.00000088  00000+0  77122-4 0  9993
2 62977  50.0047 253.6089 0000735 152.0875 208.0037 13.29338083 51843
HULIANWANG DIGUI-18     
1 62978U 25030H   26062.77525729 -.00000096  00000+0  59478-4 0  9994
2 62978  50.0052 253.5756 0000781 155.1190 204.9720 13.29338132 51844
HULIANWANG DIGUI-19     
1 62979U 25030J   26062.73329321 -.00000092  00000+0  69290-4 0  9990
2 62979  50.0036 253.9742 0000802 148.3875 211.7045 13.29341187 51833
HULIANWANG DIGUI-20     
1 63687U 25086A   26062.78612114  .00000039  00000+0  57394-4 0  9990
2 63687  86.5125 348.6237 0001705  92.2141 267.9188 13.24419975 40925
HULIANWANG DIGUI-21     
1 63688U 25086B   26062.79361513  .00000058  00000+0  10002-3 0  9991
2 63688  86.5153 348.6501 0001591  94.7514 265.3802 13.24421597 40912
HULIANWANG DIGUI-22     
1 63689U 25086C   26062.80117904  .00000062  00000+0  11002-3 0  9993
2 63689  86.5118 348.5511 0001782  92.3939 267.7399 13.24421253 40917
HULIANWANG DIGUI-23     
1 63690U 25086D   26062.81623780  .00000090  00000+0  17518-3 0  9999
2 63690  86.5160 348.6820 0001727  88.4342 271.6990 13.24422121 40919
HULIANWANG DIGUI-24     
1 63691U 25086E   26062.82384788  .00000075  00000+0  14139-3 0  9992
2 63691  86.5167 348.7060 0001757  92.6636 267.4699 13.24420202 40917
HULIANWANG DIGUI-25     
1 63692U 25086F   26062.75583373  .00000059  00000+0  10315-3 0  9990
2 63692  86.5106 348.5516 0001652  91.4015 268.7308 13.24421627 40909
HULIANWANG DIGUI-26     
1 63693U 25086G   26062.80860867  .00000067  00000+0  12293-3 0  9999
2 63693  86.5154 348.6596 0001726  96.9841 263.1489 13.24421055 40916
HULIANWANG DIGUI-27     
1 63694U 25086H   26062.76346521  .00000049  00000+0  80871-4 0  9999
2 63694  86.5115 348.5834 0001755  92.0296 268.1039 13.24420033 40901
HULIANWANG DIGUI-28     
1 63695U 25086J   26062.77849892  .00000038  00000+0  53926-4 0  9999
2 63695  86.5079 348.4833 0001751  91.9970 268.1364 13.24421308 40909
HULIANWANG DIGUI-29     
1 63696U 25086K   26062.77102137  .00000039  00000+0  55861-4 0  9995
2 63696  86.5107 348.5656 0001632  92.2967 267.8354 13.24420179 40904
HULIANWANG DIGUI-30     
1 64283U 25121A   26062.77839469  .00000030  00000+0  35076-4 0  9990
2 64283  86.4945  49.1205 0001997  79.3651 280.7708 13.24423338 36205
HULIANWANG DIGUI-31     
1 64284U 25121B   26062.77105808  .00000045  00000+0  70434-4 0  9997
2 64284  86.4965  49.1731 0002025  79.5229 280.6133 13.24419551 36201
HULIANWANG DIGUI-32     
1 64285U 25121C   26062.68760656  .00000064  00000+0  11422-3 0  9998
2 64285  86.4906  49.0317 0002005  81.5878 278.5484 13.24425238 36199
