[{"OBJECT_NAME":"HULIANWANG DIGUI-17","OBJECT_ID":"2025-030G","EPOCH":"2026-03-03T18:48:25.679520","MEAN_MOTION":13.29338083,"ECCENTRICITY":7.35e-5,"INCLINATION":50.0047,"RA_OF_ASC_NODE":253.6089,"ARG_OF_PERICENTER":152.0875,"MEAN_ANOMALY":208.0037,"EPHEMERIS_TYPE":0,"CLASSIFICATION_TYPE":"U","NORAD_CAT_ID":62977,"ELEMENT_SET_NO":999,"REV_AT_EPOCH":5184,"BSTAR":7.7122e-5,"MEAN_MOTION_DOT":-8.8e-7,"MEAN_MOTION_DDOT":0},{"OBJECT_NAME":"HULIANWANG DIGUI-18","OBJECT_ID":"2025-030H","EPOCH":"2026-03-03T18:36:22.229856","MEAN_MOTION":13.29338132,"ECCENTRICITY":7.81e-5,"INCLINATION":50.0052,"RA_OF_ASC_NODE":253.5756,"ARG_OF_PERICENTER":155.119,"MEAN_ANOMALY":204.972,"EPHEMERIS_TYPE":0,"CLASSIFICATION_TYPE":"U","NORAD_CAT_ID":62978,"ELEMENT_SET_NO":999,"REV_AT_EPOCH":5184,"BSTAR":5.9478e-5,"MEAN_MOTION_DOT":-9.6e-7,"MEAN_MOTION_DDOT":0},{"OBJECT_NAME":"HULIANWANG DIGUI-19","OBJECT_ID":"2025-030J","EPOCH":"2026-03-03T17:35:56.533344","MEAN_MOTION":13.29341187,"ECCENTRICITY":8.02e-5,"INCLINATION":50.0036,"RA_OF_ASC_NODE":253.9742,"ARG_OF_PERICENTER":148.3875,"MEAN_ANOMALY":211.7045,"EPHEMERIS_TYPE":0,"CLASSIFICATION_TYPE":"U","NORAD_CAT_ID":62979,"ELEMENT_SET_NO":999,"REV_AT_EPOCH":5183,"BSTAR":6.929e-5,"MEAN_MOTION_DOT":-9.2e-7,"MEAN_MOTION_DDOT":0},{"OBJECT_NAME":"HULIANWANG DIGUI-20","OBJECT_ID":"2025-086A","EPOCH":"2026-03-03T18:52:00.866496","MEAN_MOTION":13.24419975,"ECCENTRICITY":0.0001705,"INCLINATION":86.5125,"RA_OF_ASC_NODE":348.6237,"ARG_OF_PERICENTER":92.2141,"MEAN_ANOMALY":267.9188,"EPHEMERIS_TYPE":0,"CLASSIFICATION_TYPE":"U","NORAD_CAT_ID":63687,"ELEMENT_SET_NO":999,"REV_AT_EPOCH":4092,"BSTAR":5.7394e-5,"MEAN_MOTION_DOT":3.9e-7,"MEAN_MOTION_DDOT":0},{"OBJECT_NAME":"HULIANWANG DIGUI-21","OBJECT_ID":"2025-086B","EPOCH":"2026-03-03T19:02:48.347232","MEAN_MOTION":13.24421597,"ECCENTRICITY":0.0001591,"INCLINATION":86.5153,"RA_OF_ASC_NODE":348.6501,"ARG_OF_PERICENTER":94.7514,"MEAN_ANOMALY":265.3802,"EPHEMERIS_TYPE":0,"CLASSIFICATION_TYPE":"U","NORAD_CAT_ID":63688,"ELEMENT_SET_NO":999,"REV_AT_EPOCH":4091,"BSTAR":0.00010002,"MEAN_MOTION_DOT":5.8e-7,"MEAN_MOTION_DDOT":0},{"OBJECT_NAME":"HULIANWANG DIGUI-22","OBJECT_ID":"2025-086C","EPOCH":"2026-03-03T19:13:41.869056","MEAN_MOTION":13.24421253,"ECCENTRICITY":0.0001782,"INCLINATION":86.5118,"RA_OF_ASC_NODE":348.5511,"ARG_OF_PERICENTER":92.3939,"MEAN_ANOMALY":267.7399,"EPHEMERIS_TYPE":0,"CLASSIFICATION_TYPE":"U","NORAD_CAT_ID":63689,"ELEMENT_SET_NO":999,"REV_AT_EPOCH":4091,"BSTAR":0.00011002,"MEAN_MOTION_DOT":6.2e-7,"MEAN_MOTION_DDOT":0},{"OBJECT_NAME":"HULIANWANG DIGUI-23","OBJECT_ID":"2025-086D","EPOCH":"2026-03-03T19:35:22.945920","MEAN_MOTION":13.24422121,"ECCENTRICITY":0.0001727,"INCLINATION":86.516,"RA_OF_ASC_NODE":348.682,"ARG_OF_PERICENTER":88.4342,"MEAN_ANOMALY":271.699,"EPHEMERIS_TYPE":0,"CLASSIFICATION_TYPE":"U","NORAD_CAT_ID":63690,"ELEMENT_SET_NO":999,"REV_AT_EPOCH":4091,"BSTAR":0.00017518,"MEAN_MOTION_DOT":9.0e-7,"MEAN_MOTION_DDOT":0},{"OBJECT_NAME":"HULIANWANG DIGUI-24","OBJECT_ID":"2025-086E","EPOCH":"2026-03-03T19:46:20.456832","MEAN_MOTION":13.24420202,"ECCENTRICITY":0.0001757,"INCLINATION":86.5167,"RA_OF_ASC_NODE":348.706,"ARG_OF_PERICENTER":92.6636,"MEAN_ANOMALY":267.4699,"EPHEMERIS_TYPE":0,"CLASSIFICATION_TYPE":"U","NORAD_CAT_ID":63691,"ELEMENT_SET_NO":999,"REV_AT_EPOCH":4091,"BSTAR":0.00014139,"MEAN_MOTION_DOT":7.5e-7,"MEAN_MOTION_DDOT":0},{"OBJECT_NAME":"HULIANWANG DIGUI-25","OBJECT_ID":"2025-086F","EPOCH":"2026-03-03T18:08:24.034272","MEAN_MOTION":13.24421627,"ECCENTRICITY":0.0001652,"INCLINATION":86.5106,"RA_OF_ASC_NODE":348.5516,"ARG_OF_PERICENTER":91.4015,"MEAN_ANOMALY":268.7308,"EPHEMERIS_TYPE":0,"CLASSIFICATION_TYPE":"U","NORAD_CAT_ID":63692,"ELEMENT_SET_NO":999,"REV_AT_EPOCH":4090,"BSTAR":0.00010315,"MEAN_MOTION_DOT":5.9e-7,"MEAN_MOTION_DDOT":0},{"OBJECT_NAME":"HULIANWANG DIGUI-26","OBJECT_ID":"2025-086G","EPOCH":"2026-03-03T19:24:23.789088","MEAN_MOTION":13.24421055,"ECCENTRICITY":0.0001726,"INCLINATION":86.5154,"RA_OF_ASC_NODE":348.6596,"ARG_OF_PERICENTER":96.9841,"MEAN_ANOMALY":263.1489,"EPHEMERIS_TYPE":0,"CLASSIFICATION_TYPE":"U","NORAD_CAT_ID":63693,"ELEMENT_SET_NO":999,"REV_AT_EPOCH":4091,"BSTAR":0.00012293,"MEAN_MOTION_DOT":6.7e-7,"MEAN_MOTION_DDOT":0},{"OBJECT_NAME":"HULIANWANG DIGUI-27","OBJECT_ID":"2025-086H","EPOCH":"2026-03-03T18:19:23.394144","MEAN_MOTION":13.24420033,"ECCENTRICITY":0.0001755,"INCLINATION":86.5115,"RA_OF_ASC_NODE":348.5834,"ARG_OF_PERICENTER":92.0296,"MEAN_ANOMALY":268.1039,"EPHEMERIS_TYPE":0,"CLASSIFICATION_TYPE":"U","NORAD_CAT_ID":63694,"ELEMENT_SET_NO":999,"REV_AT_EPOCH":4090,"BSTAR":8.0871e-5,"MEAN_MOTION_DOT":4.9e-7,"MEAN_MOTION_DDOT":0},{"OBJECT_NAME":"HULIANWANG DIGUI-28","OBJECT_ID":"2025-086J","EPOCH":"2026-03-03T18:41:02.306688","MEAN_MOTION":13.24421308,"ECCENTRICITY":0.0001751,"INCLINATION":86.5079,"RA_OF_ASC_NODE":348.4833,"ARG_OF_PERICENTER":91.997,"MEAN_ANOMALY":268.1364,"EPHEMERIS_TYPE":0,"CLASSIFICATION_TYPE":"U","NORAD_CAT_ID":63695,"ELEMENT_SET_NO":999,"REV_AT_EPOCH":4090,"BSTAR":5.3926e-5,"MEAN_MOTION_DOT":3.8e-7,"MEAN_MOTION_DDOT":0},{"OBJECT_NAME":"HULIANWANG DIGUI-29","OBJECT_ID":"2025-086K","EPOCH":"2026-03-03T18:30:16.246368","MEAN_MOTION":13.24420179,"ECCENTRICITY":0.0001632,"INCLINATION":86.5107,"RA_OF_ASC_NODE":348.5656,"ARG_OF_PERICENTER":92.2967,"MEAN_ANOMALY":267.8354,"EPHEMERIS_TYPE":0,"CLASSIFICATION_TYPE":"U","NORAD_CAT_ID":63696,"ELEMENT_SET_NO":999,"REV_AT_EPOCH":4090,"BSTAR":5.5861e-5,"MEAN_MOTION_DOT":3.9e-7,"MEAN_MOTION_DDOT":0},{"OBJECT_NAME":"HULIANWANG DIGUI-30","OBJECT_ID":"2025-121A","EPOCH":"2026-03-03T18:40:53.301216","MEAN_MOTION":13.24423338,"ECCENTRICITY":0.0001997,"INCLINATION":86.4945,"RA_OF_ASC_NODE":49.1205,"ARG_OF_PERICENTER":79.3651,"MEAN_ANOMALY":280.7708,"EPHEMERIS_TYPE":0,"CLASSIFICATION_TYPE":"U","NORAD_CAT_ID":64283,"ELEMENT_SET_NO":999,"REV_AT_EPOCH":3620,"BSTAR":3.5076e-5,"MEAN_MOTION_DOT":3.0e-7,"MEAN_MOTION_DDOT":0},{"OBJECT_NAME":"HULIANWANG DIGUI-31","OBJECT_ID":"2025-121B","EPOCH":"2026-03-03T18:30:19.418112","MEAN_MOTION":13.24419551,"ECCENTRICITY":0.0002025,"INCLINATION":86.4965,"RA_OF_ASC_NODE":49.1731,"ARG_OF_PERICENTER":79.5229,"MEAN_ANOMALY":280.6133,"EPHEMERIS_TYPE":0,"CLASSIFICATION_TYPE":"U","NORAD_CAT_ID":64284,"ELEMENT_SET_NO":999,"REV_AT_EPOCH":3620,"BSTAR":7.0434e-5,"MEAN_MOTION_DOT":4.5e-7,"MEAN_MOTION_DDOT":0},{"OBJECT_NAME":"HULIANWANG DIGUI-32","OBJECT_ID":"2025-121C","EPOCH":"2026-03-03T16:30:09.206784","MEAN_MOTION":13.24425238,"ECCENTRICITY":0.0002005,"INCLINATION":86.4906,"RA_OF_ASC_NODE":49.0317,"ARG_OF_PERICENTER":81.5878,"MEAN_ANOMALY":278.5484,"EPHEMERIS_TYPE":0,"CLASSIFICATION_TYPE":"U","NORAD_CAT_ID":64285,"ELEMENT_SET_NO":999,"REV_AT_EPOCH":3619,"BSTAR":0.00011422,"MEAN_MOTION_DOT":6.4e-7,"MEAN_MOTION_DDOT":0}]
